0 DELTA 1 DEB
1 12184U 78026Z   13282.79856716  .00013365  00000-0  16645-2 0  5374
2 12184 098.7307 353.5865 0007282 156.2932 326.4454 14.82604375712888
0 DELTA 1 DEB
1 12184U 78026Z   13286.16069815  .00012195  00000-0  15169-2 0  5397
2 12184 098.7316 357.2543 0007272 146.7398 270.6925 14.82679741713389
0 DELTA 1 DEB
1 12184U 78026Z   13288.18446696  .00022237  00000-0  27520-2 0  5401
2 12184 098.7316 359.4628 0007155 141.5801 271.7446 14.82734278713689
0 DELTA 1 DEB
1 12184U 78026Z   13289.47941402  .00018241  00000-0  22581-2 0  5412
2 12184 098.7317 000.8761 0007179 138.2221 343.3116 14.82772414713875
0 DELTA 1 DEB
1 12184U 78026Z   13291.14907061  .00016491  00000-0  20403-2 0  5429
2 12184 098.7313 002.6984 0007175 133.1311 255.8345 14.82821586714123
0 DELTA 1 DEB
1 12184U 78026Z   13293.17791779  .00014396  00000-0  17805-2 0  5436
2 12184 098.7304 004.9128 0007062 127.6432 285.3867 14.82874594714422
0 DELTA 1 DEB
1 12184U 78026Z   13295.19676022  .00017958  00000-0  22154-2 0  5444
2 12184 098.7297 007.1160 0007011 122.3590 261.7402 14.82921974714726
